SL-3 R/B                
1 13403U 82079B   26062.43245999  .00008292  00000+0  33151-3 0  9994
2 13403  81.1473 200.4637 0024831 185.9195 174.1749 15.24683913376747
SL-14 R/B               
1 13553U 82092B   26062.31719419  .00000625  00000+0  67463-4 0  9991
2 13553  82.5703 147.3590 0019429 325.9165  97.7173 14.86658717327985
SL-3 R/B                
1 13819U 83010B   26062.28954009  .00019262  00000+0  39033-3 0  9997
2 13819  81.1059  10.0905 0018467  71.2910 289.0337 15.46076306356957
SL-3 R/B                
1 14208U 83075B   26062.50756514  .00013395  00000+0  35545-3 0  9992
2 14208  97.6131  66.8512 0019721 250.0981 109.8138 15.38234128329200
COSMOS 1536             
1 14699U 84013A   26062.41575257  .00007777  00000+0  32172-3 0  9992
2 14699  82.5438 114.0872 0012831 308.1308  51.8771 15.23725902271669
SL-14 R/B               
1 14820U 84027B   26062.49809254  .00000617  00000+0  67775-4 0  9992
2 14820  82.5381 250.8214 0017899 358.9546   1.1629 14.85968731246711
SL-8 R/B                
1 15483U 85006B   26062.06646240  .00000191  00000+0  72060-4 0  9993
2 15483  74.0434 273.3369 0018721 192.6546 324.5251 14.37777951153079
SL-12 R/B(2)            
1 15772U 85042D   26062.51311539  .00000174  00000+0  99652-4 0  9991
2 15772  71.1065 100.7793 0033511 138.2593 330.7992 14.21980466113510
SL-14 R/B               
1 15945U 85069B   26062.41743232  .00000701  00000+0  76429-4 0  9993
2 15945  82.5272  30.8304 0017926 209.0624 150.9597 14.86424279171909
SL-16 R/B               
1 16182U 85097B   26062.49403292 -.00000004  00000+0  22121-4 0  9992
2 16182  71.0037 153.5970 0009957 267.0668 173.3862 14.16599655 86356
SL-14 R/B               
1 16496U 86006B   26062.05962902  .00000762  00000+0  78534-4 0  9990
2 16496  82.5235 265.9789 0075211 295.2248  64.1185 14.86804678148221
COSMOS 1743             
1 16719U 86034A   26062.47741506  .00035452  00000+0  47113-3 0  9992
2 16719  82.5291  80.3487 0002254 335.7563  24.3586 15.58030499179287
