CCSDS_OMM_VERS = 2.0
CREATION_DATE  = 
ORIGINATOR     = 

OBJECT_NAME    = SL-3 R/B
OBJECT_ID      = 1982-079B
CENTER_NAME    = EARTH
REF_FRAME      = TEME
TIME_SYSTEM    = UTC
MEAN_ELEMENT_THEORY = SGP/SGP4

EPOCH          = 2026-03-03T10:22:44.543136
MEAN_MOTION    = 15.24683913
ECCENTRICITY   = .0024831
INCLINATION    = 81.1473
RA_OF_ASC_NODE = 200.4637
ARG_OF_PERICENTER = 185.9195
MEAN_ANOMALY   = 174.1749

EPHEMERIS_TYPE = 0
CLASSIFICATION_TYPE = U
NORAD_CAT_ID   = 13403
ELEMENT_SET_NO = 999
REV_AT_EPOCH   = 37674
BSTAR          = .33151E-3
MEAN_MOTION_DOT = .8292E-4
MEAN_MOTION_DDOT = 0

CCSDS_OMM_VERS = 2.0
CREATION_DATE  = 
ORIGINATOR     = 

OBJECT_NAME    = SL-14 R/B
OBJECT_ID      = 1982-092B
CENTER_NAME    = EARTH
REF_FRAME      = TEME
TIME_SYSTEM    = UTC
MEAN_ELEMENT_THEORY = SGP/SGP4

EPOCH          = 2026-03-03T07:36:45.578016
MEAN_MOTION    = 14.86658717
ECCENTRICITY   = .0019429
INCLINATION    = 82.5703
RA_OF_ASC_NODE = 147.3590
ARG_OF_PERICENTER = 325.9165
MEAN_ANOMALY   = 97.7173

EPHEMERIS_TYPE = 0
CLASSIFICATION_TYPE = U
NORAD_CAT_ID   = 13553
ELEMENT_SET_NO = 999
REV_AT_EPOCH   = 32798
BSTAR          = .67463E-4
MEAN_MOTION_DOT = .625E-5
MEAN_MOTION_DDOT = 0

CCSDS_OMM_VERS = 2.0
CREATION_DATE  = 
ORIGINATOR     = 

OBJECT_NAME    = SL-3 R/B
OBJECT_ID      = 1983-010B
CENTER_NAME    = EARTH
REF_FRAME      = TEME
TIME_SYSTEM    = UTC
MEAN_ELEMENT_THEORY = SGP/SGP4

EPOCH          = 2026-03-03T06:56:56.263776
MEAN_MOTION    = 15.46076306
ECCENTRICITY   = .0018467
INCLINATION    = 81.1059
RA_OF_ASC_NODE = 10.0905
ARG_OF_PERICENTER = 71.2910
MEAN_ANOMALY   = 289.0337

EPHEMERIS_TYPE = 0
CLASSIFICATION_TYPE = U
NORAD_CAT_ID   = 13819
ELEMENT_SET_NO = 999
REV_AT_EPOCH   = 35695
BSTAR          = .39033E-3
MEAN_MOTION_DOT = .19262E-3
MEAN_MOTION_DDOT = 0

CCSDS_OMM_VERS = 2.0
CREATION_DATE  = 
ORIGINATOR     = 

OBJECT_NAME    = SL-3 R/B
OBJECT_ID      = 1983-075B
CENTER_NAME    = EARTH
REF_FRAME      = TEME
TIME_SYSTEM    = UTC
MEAN_ELEMENT_THEORY = SGP/SGP4

EPOCH          = 2026-03-03T12:10:53.628096
MEAN_MOTION    = 15.38234128
ECCENTRICITY   = .0019721
INCLINATION    = 97.6131
RA_OF_ASC_NODE = 66.8512
ARG_OF_PERICENTER = 250.0981
MEAN_ANOMALY   = 109.8138

EPHEMERIS_TYPE = 0
CLASSIFICATION_TYPE = U
NORAD_CAT_ID   = 14208
ELEMENT_SET_NO = 999
REV_AT_EPOCH   = 32920
BSTAR          = .35545E-3
MEAN_MOTION_DOT = .13395E-3
MEAN_MOTION_DDOT = 0

CCSDS_OMM_VERS = 2.0
CREATION_DATE  = 
ORIGINATOR     = 

OBJECT_NAME    = COSMOS 1536
OBJECT_ID      = 1984-013A
CENTER_NAME    = EARTH
REF_FRAME      = TEME
TIME_SYSTEM    = UTC
MEAN_ELEMENT_THEORY = SGP/SGP4

EPOCH          = 2026-03-03T09:58:41.022048
MEAN_MOTION    = 15.23725902
ECCENTRICITY   = .0012831
INCLINATION    = 82.5438
RA_OF_ASC_NODE = 114.0872
ARG_OF_PERICENTER = 308.1308
MEAN_ANOMALY   = 51.8771

EPHEMERIS_TYPE = 0
CLASSIFICATION_TYPE = U
NORAD_CAT_ID   = 14699
ELEMENT_SET_NO = 999
REV_AT_EPOCH   = 27166
BSTAR          = .32172E-3
MEAN_MOTION_DOT = .7777E-4
MEAN_MOTION_DDOT = 0

CCSDS_OMM_VERS = 2.0
CREATION_DATE  = 
ORIGINATOR     = 

OBJECT_NAME    = SL-14 R/B
OBJECT_ID      = 1984-027B
CENTER_NAME    = EARTH
REF_FRAME      = TEME
TIME_SYSTEM    = UTC
MEAN_ELEMENT_THEORY = SGP/SGP4

EPOCH          = 2026-03-03T11:57:15.195456
MEAN_MOTION    = 14.85968731
ECCENTRICITY   = .0017899
INCLINATION    = 82.5381
RA_OF_ASC_NODE = 250.8214
ARG_OF_PERICENTER = 358.9546
MEAN_ANOMALY   = 1.1629

EPHEMERIS_TYPE = 0
CLASSIFICATION_TYPE = U
NORAD_CAT_ID   = 14820
ELEMENT_SET_NO = 999
REV_AT_EPOCH   = 24671
BSTAR          = .67775E-4
MEAN_MOTION_DOT = .617E-5
MEAN_MOTION_DDOT = 0

CCSDS_OMM_VERS = 2.0
CREATION_DATE  = 
ORIGINATOR     = 

OBJECT_NAME    = SL-8 R/B
OBJECT_ID      = 1985-006B
CENTER_NAME    = EARTH
REF_FRAME      = TEME
TIME_SYSTEM    = UTC
MEAN_ELEMENT_THEORY = SGP/SGP4

EPOCH          = 2026-03-03T01:35:42.351360
MEAN_MOTION    = 14.37777951
ECCENTRICITY   = .0018721
INCLINATION    = 74.0434
RA_OF_ASC_NODE = 273.3369
ARG_OF_PERICENTER = 192.6546
MEAN_ANOMALY   = 324.5251

EPHEMERIS_TYPE = 0
CLASSIFICATION_TYPE = U
NORAD_CAT_ID   = 15483
ELEMENT_SET_NO = 999
REV_AT_EPOCH   = 15307
BSTAR          = .7206E-4
MEAN_MOTION_DOT = .191E-5
MEAN_MOTION_DDOT = 0

CCSDS_OMM_VERS = 2.0
CREATION_DATE  = 
ORIGINATOR     = 

OBJECT_NAME    = SL-12 R/B(2)
OBJECT_ID      = 1985-042D
CENTER_NAME    = EARTH
REF_FRAME      = TEME
TIME_SYSTEM    = UTC
MEAN_ELEMENT_THEORY = SGP/SGP4

EPOCH          = 2026-03-03T12:18:53.169696
MEAN_MOTION    = 14.21980466
ECCENTRICITY   = .0033511
INCLINATION    = 71.1065
RA_OF_ASC_NODE = 100.7793
ARG_OF_PERICENTER = 138.2593
MEAN_ANOMALY   = 330.7992

EPHEMERIS_TYPE = 0
CLASSIFICATION_TYPE = U
NORAD_CAT_ID   = 15772
ELEMENT_SET_NO = 999
REV_AT_EPOCH   = 11351
BSTAR          = .99652E-4
MEAN_MOTION_DOT = .174E-5
MEAN_MOTION_DDOT = 0

CCSDS_OMM_VERS = 2.0
CREATION_DATE  = 
ORIGINATOR     = 

OBJECT_NAME    = SL-14 R/B
OBJECT_ID      = 1985-069B
CENTER_NAME    = EARTH
REF_FRAME      = TEME
TIME_SYSTEM    = UTC
MEAN_ELEMENT_THEORY = SGP/SGP4

EPOCH          = 2026-03-03T10:01:06.152448
MEAN_MOTION    = 14.86424279
ECCENTRICITY   = .0017926
INCLINATION    = 82.5272
RA_OF_ASC_NODE = 30.8304
ARG_OF_PERICENTER = 209.0624
MEAN_ANOMALY   = 150.9597

EPHEMERIS_TYPE = 0
CLASSIFICATION_TYPE = U
NORAD_CAT_ID   = 15945
ELEMENT_SET_NO = 999
REV_AT_EPOCH   = 17190
BSTAR          = .76429E-4
MEAN_MOTION_DOT = .701E-5
MEAN_MOTION_DDOT = 0

CCSDS_OMM_VERS = 2.0
CREATION_DATE  = 
ORIGINATOR     = 

OBJECT_NAME    = SL-16 R/B
OBJECT_ID      = 1985-097B
CENTER_NAME    = EARTH
REF_FRAME      = TEME
TIME_SYSTEM    = UTC
MEAN_ELEMENT_THEORY = SGP/SGP4

EPOCH          = 2026-03-03T11:51:24.444288
MEAN_MOTION    = 14.16599655
ECCENTRICITY   = .0009957
INCLINATION    = 71.0037
RA_OF_ASC_NODE = 153.5970
ARG_OF_PERICENTER = 267.0668
MEAN_ANOMALY   = 173.3862

EPHEMERIS_TYPE = 0
CLASSIFICATION_TYPE = U
NORAD_CAT_ID   = 16182
ELEMENT_SET_NO = 999
REV_AT_EPOCH   = 8635
BSTAR          = .22121E-4
MEAN_MOTION_DOT = -.4E-7
MEAN_MOTION_DDOT = 0

CCSDS_OMM_VERS = 2.0
CREATION_DATE  = 
ORIGINATOR     = 

OBJECT_NAME    = SL-14 R/B
OBJECT_ID      = 1986-006B
CENTER_NAME    = EARTH
REF_FRAME      = TEME
TIME_SYSTEM    = UTC
MEAN_ELEMENT_THEORY = SGP/SGP4

EPOCH          = 2026-03-03T01:25:51.947328
MEAN_MOTION    = 14.86804678
ECCENTRICITY   = .0075211
INCLINATION    = 82.5235
RA_OF_ASC_NODE = 265.9789
ARG_OF_PERICENTER = 295.2248
MEAN_ANOMALY   = 64.1185

EPHEMERIS_TYPE = 0
CLASSIFICATION_TYPE = U
NORAD_CAT_ID   = 16496
ELEMENT_SET_NO = 999
REV_AT_EPOCH   = 14822
BSTAR          = .78534E-4
MEAN_MOTION_DOT = .762E-5
MEAN_MOTION_DDOT = 0

CCSDS_OMM_VERS = 2.0
CREATION_DATE  = 
ORIGINATOR     = 

OBJECT_NAME    = COSMOS 1743
OBJECT_ID      = 1986-034A
CENTER_NAME    = EARTH
REF_FRAME      = TEME
TIME_SYSTEM    = UTC
MEAN_ELEMENT_THEORY = SGP/SGP4

EPOCH          = 2026-03-03T11:27:28.661184
MEAN_MOTION    = 15.58030499
ECCENTRICITY   = .0002254
INCLINATION    = 82.5291
RA_OF_ASC_NODE = 80.3487
ARG_OF_PERICENTER = 335.7563
MEAN_ANOMALY   = 24.3586

EPHEMERIS_TYPE = 0
CLASSIFICATION_TYPE = U
NORAD_CAT_ID   = 16719
ELEMENT_SET_NO = 999
REV_AT_EPOCH   = 17928
BSTAR          = .47113E-3
MEAN_MOTION_DOT = .35452E-3
MEAN_MOTION_DDOT = 0

